TIANMU-1 21             
1 58662U 23208C   26162.77190623  .00008841  00000+0  26277-3 0  9991
2 58662  97.4495 282.3315 0006372 346.4753  13.6318 15.34981611136732
TIANMU-1 22             
1 58663U 23208D   26162.84410039  .00006957  00000+0  23498-3 0  9994
2 58663  97.4491 279.0576 0003730  22.9854 337.1553 15.30984151136513
TIANMU-1 15             
1 58700U 24004A   26162.85623309  .00005408  00000+0  20698-3 0  9997
2 58700  97.4668 349.0463 0007241  20.7367 339.4164 15.26969277134967
TIANMU-1 16             
1 58701U 24004B   26162.84450892  .00005274  00000+0  20363-3 0  9992
2 58701  97.4613 348.2774 0006361  25.6844 334.4709 15.26694321134965
TIANMU-1 17             
1 58702U 24004C   26162.82995933  .00005086  00000+0  19649-3 0  9997
2 58702  97.4642 348.7460 0006049  31.5350 328.6250 15.26693711134953
TIANMU-1 18             
1 58703U 24004D   26162.80725262  .00005204  00000+0  19945-3 0  9993
2 58703  97.4661 348.9753 0004581  31.9648 328.1868 15.26951960134958
INSAT-3DS               
1 58990U 24033A   26162.71071646 -.00000140  00000+0  00000+0 0  9996
2 58990   0.0410 134.0649 0001086 300.5182 163.4221  1.00272207 47011
METEOR-M2 4             
1 59051U 24039A   26162.90777919  .00000002  00000+0  20787-4 0  9993
2 59051  98.7008 122.2722 0006978 175.9075 184.2161 14.22429046118519
GOES 19                 
1 60133U 24119A   26162.60826064 -.00000231  00000+0  00000+0 0  9994
2 60133   0.0445 149.2699 0000482  19.5805 234.8905  1.00270797  6909
MTG-S1                  
1 64723U 25143A   26162.69378027 -.00000015  00000+0  00000+0 0  9991
2 64723   0.6083 337.6533 0000976  18.2121 150.4552  1.00271591  3368
METOP-SGA1              
1 65159U 25172A   26162.78930201  .00000029  00000+0  33053-4 0  9998
2 65159  98.6644 222.6154 0000942  89.5178 270.6108 14.21508914 43028
FENGYUN 3H              
1 65815U 25219A   26162.68562241  .00000029  00000+0  33945-4 0  9993
2 65815  98.6768 103.5617 0001624  80.9193 279.2167 14.19919542 36601
