OBJECT_NAME,OBJECT_ID,EPOCH,MEAN_MOTION,ECCENTRICITY,INCLINATION,RA_OF_ASC_NODE,ARG_OF_PERICENTER,MEAN_ANOMALY,EPHEMERIS_TYPE,CLASSIFICATION_TYPE,NORAD_CAT_ID,ELEMENT_SET_NO,REV_AT_EPOCH,BSTAR,MEAN_MOTION_DOT,MEAN_MOTION_DDOT
TIANMU-1 21,2023-208C,2026-06-11T18:31:32.698272,15.34981611,.0006372,97.4495,282.3315,346.4753,13.6318,0,U,58662,999,13673,.26277E-3,.8841E-4,0
TIANMU-1 22,2023-208D,2026-06-11T20:15:30.273696,15.30984151,.000373,97.4491,279.0576,22.9854,337.1553,0,U,58663,999,13651,.23498E-3,.6957E-4,0
TIANMU-1 15,2024-004A,2026-06-11T20:32:58.538976,15.26969277,.0007241,97.4668,349.0463,20.7367,339.4164,0,U,58700,999,13496,.20698E-3,.5408E-4,0
TIANMU-1 16,2024-004B,2026-06-11T20:16:05.570688,15.26694321,.0006361,97.4613,348.2774,25.6844,334.4709,0,U,58701,999,13496,.20363E-3,.5274E-4,0
TIANMU-1 17,2024-004C,2026-06-11T19:55:08.486112,15.26693711,.0006049,97.4642,348.7460,31.5350,328.6250,0,U,58702,999,13495,.19649E-3,.5086E-4,0
TIANMU-1 18,2024-004D,2026-06-11T19:22:26.626368,15.26951960,.0004581,97.4661,348.9753,31.9648,328.1868,0,U,58703,999,13495,.19945E-3,.5204E-4,0
INSAT-3DS,2024-033A,2026-06-11T17:03:25.902144,1.00272207,.0001086,0.0410,134.0649,300.5182,163.4221,0,U,58990,999,4701,0,-.14E-5,0
METEOR-M2 4,2024-039A,2026-06-11T21:47:12.122016,14.22429046,.0006978,98.7008,122.2722,175.9075,184.2161,0,U,59051,999,11851,.20787E-4,.2E-7,0
GOES 19,2024-119A,2026-06-11T14:35:53.719296,1.00270797,.0000482,0.0445,149.2699,19.5805,234.8905,0,U,60133,999,690,0,-.231E-5,0
MTG-S1,2025-143A,2026-06-11T16:39:02.615328,1.00271591,.0000976,0.6083,337.6533,18.2121,150.4552,0,U,64723,999,336,0,-.15E-6,0
METOP-SGA1,2025-172A,2026-06-11T18:56:35.693664,14.21508914,.0000942,98.6644,222.6154,89.5178,270.6108,0,U,65159,999,4302,.33053E-4,.29E-6,0
FENGYUN 3H,2025-219A,2026-06-11T16:27:17.776224,14.19919542,.0001624,98.6768,103.5617,80.9193,279.2167,0,U,65815,999,3660,.33945E-4,.29E-6,0
